[{"OBJECT_NAME":"HULIANWANG DIGUI-104","OBJECT_ID":"2025-258J","EPOCH":"2026-03-09T22:26:56.403456","MEAN_MOTION":13.2933353,"ECCENTRICITY":4.647e-5,"INCLINATION":50.0021,"RA_OF_ASC_NODE":291.2904,"ARG_OF_PERICENTER":122.169,"MEAN_ANOMALY":237.9227,"EPHEMERIS_TYPE":0,"CLASSIFICATION_TYPE":"U","NORAD_CAT_ID":66420,"ELEMENT_SET_NO":999,"REV_AT_EPOCH":1652,"BSTAR":0.00012035683,"MEAN_MOTION_DOT":-6.8e-7,"MEAN_MOTION_DDOT":0},{"OBJECT_NAME":"THOR ABLESTAR R\/B","OBJECT_ID":"1965-065B","EPOCH":"2026-03-09T17:52:54.040224","MEAN_MOTION":13.36090498,"ECCENTRICITY":0.00402116,"INCLINATION":90.1364,"RA_OF_ASC_NODE":306.4249,"ARG_OF_PERICENTER":252.0454,"MEAN_ANOMALY":176.1077,"EPHEMERIS_TYPE":0,"CLASSIFICATION_TYPE":"U","NORAD_CAT_ID":1508,"ELEMENT_SET_NO":999,"REV_AT_EPOCH":95213,"BSTAR":3.4746564e-5,"MEAN_MOTION_DOT":2.6e-7,"MEAN_MOTION_DDOT":0}]
